ORBCOMM FM05            
1 25117U 97084F   24134.65438247  .00003575  00000+0  11060-2 0  9996
2 25117  45.0140 121.6514 0003570 345.9339  14.1412 14.42722910383787
ORBCOMM FM06            
1 25118U 97084G   24135.23945279  .00003601  00000+0  11125-2 0  9992
2 25118  45.0132 119.0226 0002644 347.6893  28.5259 14.42771129383868
ORBCOMM FM07            
1 25119U 97084H   24135.22781021  .00003255  00000+0  10114-2 0  9997
2 25119  45.0129 119.6170 0004409 345.4004  14.6718 14.42691136383854
ORBCOMM FM03            
1 25158U 98007B   24134.66261551  .00002199  00000+0  85297-3 0  9995
2 25158 107.9707  36.1899 0047846 227.9612 131.7449 14.32186554366797
ORBCOMM FM04            
1 25159U 98007C   24134.72051235  .00002178  00000+0  84252-3 0  9996
2 25159 107.9687  39.2466 0043346 225.8461 133.9111 14.32450017367080
ORBCOMM FM17            
1 25413U 98046A   24134.83806205  .00002617  00000+0  99485-3 0  9991
2 25413  44.9948 339.5486 0001969  19.1701 340.9219 14.33166229345846
ORBCOMM FM18            
1 25414U 98046B   24134.47818048  .00003805  00000+0  13470-2 0  9999
2 25414  44.9927 268.2722 0002874  85.2501 274.8674 14.35933373346747
ORBCOMM FM19            
1 25415U 98046C   24134.75010948  .00003093  00000+0  11077-2 0  9994
2 25415  44.9936 268.4032 0001604  83.0743  57.3213 14.35769973346946
