<?xml version="1.0" encoding="UTF-8"?>
<ndm xmlns:xsi="http://www.w3.org/2001/XMLSchema-instance" xsi:noNamespaceSchemaLocation="https://sanaregistry.org/r/ndmxml_unqualified/ndmxml-2.0.0-master-2.0.xsd">
<omm id="CCSDS_OMM_VERS" version="2.0">
<header><CREATION_DATE/><ORIGINATOR/></header><body><segment><metadata><OBJECT_NAME>ORBCOMM FM05</OBJECT_NAME><OBJECT_ID>1997-084F</OBJECT_ID><CENTER_NAME>EARTH</CENTER_NAME><REF_FRAME>TEME</REF_FRAME><TIME_SYSTEM>UTC</TIME_SYSTEM><MEAN_ELEMENT_THEORY>SGP4</MEAN_ELEMENT_THEORY></metadata><data><meanElements><EPOCH>2024-05-13T15:42:18.645408</EPOCH><MEAN_MOTION>14.42722910</MEAN_MOTION><ECCENTRICITY>.000357</ECCENTRICITY><INCLINATION>45.0140</INCLINATION><RA_OF_ASC_NODE>121.6514</RA_OF_ASC_NODE><ARG_OF_PERICENTER>345.9339</ARG_OF_PERICENTER><MEAN_ANOMALY>14.1412</MEAN_ANOMALY></meanElements><tleParameters><EPHEMERIS_TYPE>0</EPHEMERIS_TYPE><CLASSIFICATION_TYPE>U</CLASSIFICATION_TYPE><NORAD_CAT_ID>25117</NORAD_CAT_ID><ELEMENT_SET_NO>999</ELEMENT_SET_NO><REV_AT_EPOCH>38378</REV_AT_EPOCH><BSTAR>.1106E-2</BSTAR><MEAN_MOTION_DOT>.3575E-4</MEAN_MOTION_DOT><MEAN_MOTION_DDOT>0</MEAN_MOTION_DDOT></tleParameters></data></segment></body></omm>
<omm id="CCSDS_OMM_VERS" version="2.0">
<header><CREATION_DATE/><ORIGINATOR/></header><body><segment><metadata><OBJECT_NAME>ORBCOMM FM06</OBJECT_NAME><OBJECT_ID>1997-084G</OBJECT_ID><CENTER_NAME>EARTH</CENTER_NAME><REF_FRAME>TEME</REF_FRAME><TIME_SYSTEM>UTC</TIME_SYSTEM><MEAN_ELEMENT_THEORY>SGP4</MEAN_ELEMENT_THEORY></metadata><data><meanElements><EPOCH>2024-05-14T05:44:48.721056</EPOCH><MEAN_MOTION>14.42771129</MEAN_MOTION><ECCENTRICITY>.0002644</ECCENTRICITY><INCLINATION>45.0132</INCLINATION><RA_OF_ASC_NODE>119.0226</RA_OF_ASC_NODE><ARG_OF_PERICENTER>347.6893</ARG_OF_PERICENTER><MEAN_ANOMALY>28.5259</MEAN_ANOMALY></meanElements><tleParameters><EPHEMERIS_TYPE>0</EPHEMERIS_TYPE><CLASSIFICATION_TYPE>U</CLASSIFICATION_TYPE><NORAD_CAT_ID>25118</NORAD_CAT_ID><ELEMENT_SET_NO>999</ELEMENT_SET_NO><REV_AT_EPOCH>38386</REV_AT_EPOCH><BSTAR>.11125E-2</BSTAR><MEAN_MOTION_DOT>.3601E-4</MEAN_MOTION_DOT><MEAN_MOTION_DDOT>0</MEAN_MOTION_DDOT></tleParameters></data></segment></body></omm>
<omm id="CCSDS_OMM_VERS" version="2.0">
<header><CREATION_DATE/><ORIGINATOR/></header><body><segment><metadata><OBJECT_NAME>ORBCOMM FM07</OBJECT_NAME><OBJECT_ID>1997-084H</OBJECT_ID><CENTER_NAME>EARTH</CENTER_NAME><REF_FRAME>TEME</REF_FRAME><TIME_SYSTEM>UTC</TIME_SYSTEM><MEAN_ELEMENT_THEORY>SGP4</MEAN_ELEMENT_THEORY></metadata><data><meanElements><EPOCH>2024-05-14T05:28:02.802144</EPOCH><MEAN_MOTION>14.42691136</MEAN_MOTION><ECCENTRICITY>.0004409</ECCENTRICITY><INCLINATION>45.0129</INCLINATION><RA_OF_ASC_NODE>119.6170</RA_OF_ASC_NODE><ARG_OF_PERICENTER>345.4004</ARG_OF_PERICENTER><MEAN_ANOMALY>14.6718</MEAN_ANOMALY></meanElements><tleParameters><EPHEMERIS_TYPE>0</EPHEMERIS_TYPE><CLASSIFICATION_TYPE>U</CLASSIFICATION_TYPE><NORAD_CAT_ID>25119</NORAD_CAT_ID><ELEMENT_SET_NO>999</ELEMENT_SET_NO><REV_AT_EPOCH>38385</REV_AT_EPOCH><BSTAR>.10114E-2</BSTAR><MEAN_MOTION_DOT>.3255E-4</MEAN_MOTION_DOT><MEAN_MOTION_DDOT>0</MEAN_MOTION_DDOT></tleParameters></data></segment></body></omm>
<omm id="CCSDS_OMM_VERS" version="2.0">
<header><CREATION_DATE/><ORIGINATOR/></header><body><segment><metadata><OBJECT_NAME>ORBCOMM FM03</OBJECT_NAME><OBJECT_ID>1998-007B</OBJECT_ID><CENTER_NAME>EARTH</CENTER_NAME><REF_FRAME>TEME</REF_FRAME><TIME_SYSTEM>UTC</TIME_SYSTEM><MEAN_ELEMENT_THEORY>SGP4</MEAN_ELEMENT_THEORY></metadata><data><meanElements><EPOCH>2024-05-13T15:54:09.980064</EPOCH><MEAN_MOTION>14.32186554</MEAN_MOTION><ECCENTRICITY>.0047846</ECCENTRICITY><INCLINATION>107.9707</INCLINATION><RA_OF_ASC_NODE>36.1899</RA_OF_ASC_NODE><ARG_OF_PERICENTER>227.9612</ARG_OF_PERICENTER><MEAN_ANOMALY>131.7449</MEAN_ANOMALY></meanElements><tleParameters><EPHEMERIS_TYPE>0</EPHEMERIS_TYPE><CLASSIFICATION_TYPE>U</CLASSIFICATION_TYPE><NORAD_CAT_ID>25158</NORAD_CAT_ID><ELEMENT_SET_NO>999</ELEMENT_SET_NO><REV_AT_EPOCH>36679</REV_AT_EPOCH><BSTAR>.85297E-3</BSTAR><MEAN_MOTION_DOT>.2199E-4</MEAN_MOTION_DOT><MEAN_MOTION_DDOT>0</MEAN_MOTION_DDOT></tleParameters></data></segment></body></omm>
<omm id="CCSDS_OMM_VERS" version="2.0">
<header><CREATION_DATE/><ORIGINATOR/></header><body><segment><metadata><OBJECT_NAME>ORBCOMM FM04</OBJECT_NAME><OBJECT_ID>1998-007C</OBJECT_ID><CENTER_NAME>EARTH</CENTER_NAME><REF_FRAME>TEME</REF_FRAME><TIME_SYSTEM>UTC</TIME_SYSTEM><MEAN_ELEMENT_THEORY>SGP4</MEAN_ELEMENT_THEORY></metadata><data><meanElements><EPOCH>2024-05-13T17:17:32.267040</EPOCH><MEAN_MOTION>14.32450017</MEAN_MOTION><ECCENTRICITY>.0043346</ECCENTRICITY><INCLINATION>107.9687</INCLINATION><RA_OF_ASC_NODE>39.2466</RA_OF_ASC_NODE><ARG_OF_PERICENTER>225.8461</ARG_OF_PERICENTER><MEAN_ANOMALY>133.9111</MEAN_ANOMALY></meanElements><tleParameters><EPHEMERIS_TYPE>0</EPHEMERIS_TYPE><CLASSIFICATION_TYPE>U</CLASSIFICATION_TYPE><NORAD_CAT_ID>25159</NORAD_CAT_ID><ELEMENT_SET_NO>999</ELEMENT_SET_NO><REV_AT_EPOCH>36708</REV_AT_EPOCH><BSTAR>.84252E-3</BSTAR><MEAN_MOTION_DOT>.2178E-4</MEAN_MOTION_DOT><MEAN_MOTION_DDOT>0</MEAN_MOTION_DDOT></tleParameters></data></segment></body></omm>
<omm id="CCSDS_OMM_VERS" version="2.0">
<header><CREATION_DATE/><ORIGINATOR/></header><body><segment><metadata><OBJECT_NAME>ORBCOMM FM17</OBJECT_NAME><OBJECT_ID>1998-046A</OBJECT_ID><CENTER_NAME>EARTH</CENTER_NAME><REF_FRAME>TEME</REF_FRAME><TIME_SYSTEM>UTC</TIME_SYSTEM><MEAN_ELEMENT_THEORY>SGP4</MEAN_ELEMENT_THEORY></metadata><data><meanElements><EPOCH>2024-05-13T20:06:48.561120</EPOCH><MEAN_MOTION>14.33166229</MEAN_MOTION><ECCENTRICITY>.0001969</ECCENTRICITY><INCLINATION>44.9948</INCLINATION><RA_OF_ASC_NODE>339.5486</RA_OF_ASC_NODE><ARG_OF_PERICENTER>19.1701</ARG_OF_PERICENTER><MEAN_ANOMALY>340.9219</MEAN_ANOMALY></meanElements><tleParameters><EPHEMERIS_TYPE>0</EPHEMERIS_TYPE><CLASSIFICATION_TYPE>U</CLASSIFICATION_TYPE><NORAD_CAT_ID>25413</NORAD_CAT_ID><ELEMENT_SET_NO>999</ELEMENT_SET_NO><REV_AT_EPOCH>34584</REV_AT_EPOCH><BSTAR>.99485E-3</BSTAR><MEAN_MOTION_DOT>.2617E-4</MEAN_MOTION_DOT><MEAN_MOTION_DDOT>0</MEAN_MOTION_DDOT></tleParameters></data></segment></body></omm>
<omm id="CCSDS_OMM_VERS" version="2.0">
<header><CREATION_DATE/><ORIGINATOR/></header><body><segment><metadata><OBJECT_NAME>ORBCOMM FM18</OBJECT_NAME><OBJECT_ID>1998-046B</OBJECT_ID><CENTER_NAME>EARTH</CENTER_NAME><REF_FRAME>TEME</REF_FRAME><TIME_SYSTEM>UTC</TIME_SYSTEM><MEAN_ELEMENT_THEORY>SGP4</MEAN_ELEMENT_THEORY></metadata><data><meanElements><EPOCH>2024-05-13T11:28:34.793472</EPOCH><MEAN_MOTION>14.35933373</MEAN_MOTION><ECCENTRICITY>.0002874</ECCENTRICITY><INCLINATION>44.9927</INCLINATION><RA_OF_ASC_NODE>268.2722</RA_OF_ASC_NODE><ARG_OF_PERICENTER>85.2501</ARG_OF_PERICENTER><MEAN_ANOMALY>274.8674</MEAN_ANOMALY></meanElements><tleParameters><EPHEMERIS_TYPE>0</EPHEMERIS_TYPE><CLASSIFICATION_TYPE>U</CLASSIFICATION_TYPE><NORAD_CAT_ID>25414</NORAD_CAT_ID><ELEMENT_SET_NO>999</ELEMENT_SET_NO><REV_AT_EPOCH>34674</REV_AT_EPOCH><BSTAR>.1347E-2</BSTAR><MEAN_MOTION_DOT>.3805E-4</MEAN_MOTION_DOT><MEAN_MOTION_DDOT>0</MEAN_MOTION_DDOT></tleParameters></data></segment></body></omm>
<omm id="CCSDS_OMM_VERS" version="2.0">
<header><CREATION_DATE/><ORIGINATOR/></header><body><segment><metadata><OBJECT_NAME>ORBCOMM FM19</OBJECT_NAME><OBJECT_ID>1998-046C</OBJECT_ID><CENTER_NAME>EARTH</CENTER_NAME><REF_FRAME>TEME</REF_FRAME><TIME_SYSTEM>UTC</TIME_SYSTEM><MEAN_ELEMENT_THEORY>SGP4</MEAN_ELEMENT_THEORY></metadata><data><meanElements><EPOCH>2024-05-13T18:00:09.459072</EPOCH><MEAN_MOTION>14.35769973</MEAN_MOTION><ECCENTRICITY>.0001604</ECCENTRICITY><INCLINATION>44.9936</INCLINATION><RA_OF_ASC_NODE>268.4032</RA_OF_ASC_NODE><ARG_OF_PERICENTER>83.0743</ARG_OF_PERICENTER><MEAN_ANOMALY>57.3213</MEAN_ANOMALY></meanElements><tleParameters><EPHEMERIS_TYPE>0</EPHEMERIS_TYPE><CLASSIFICATION_TYPE>U</CLASSIFICATION_TYPE><NORAD_CAT_ID>25415</NORAD_CAT_ID><ELEMENT_SET_NO>999</ELEMENT_SET_NO><REV_AT_EPOCH>34694</REV_AT_EPOCH><BSTAR>.11077E-2</BSTAR><MEAN_MOTION_DOT>.3093E-4</MEAN_MOTION_DOT><MEAN_MOTION_DDOT>0</MEAN_MOTION_DDOT></tleParameters></data></segment></body></omm>

</ndm>
